STARLINK-2483           
1 48140U 21027BA  23252.33774437 -.00001638  00000+0 -91115-4 0  9991
2 48140  53.0520 307.3279 0001560  82.1922 277.9244 15.06393886134508
STARLINK-2484           
1 48141U 21027BB  23252.42715399  .00005108  00000+0  36168-3 0  9994
2 48141  53.0539 306.9234 0001544  91.4879 268.6287 15.06389277134526
STARLINK-2485           
1 48142U 21027BC  23252.10095324  .00002325  00000+0  17491-3 0  9995
2 48142  53.0540 288.3875 0001329  84.1214 275.9926 15.06397430134752
STARLINK-2486           
1 48143U 21027BD  23252.58334491 -.00011899  00000+0 -78131-3 0  9995
2 48143  53.0528 241.3128 0001405  87.7987  57.2821 15.06396006135451
STARLINK-2487           
1 48144U 21027BE  23252.37371035  .00001073  00000+0  90965-4 0  9999
2 48144  53.0548 287.1608 0001485  99.1016 261.0141 15.06393230134795
STARLINK-2488           
1 48145U 21027BF  23252.11200240  .00000704  00000+0  66187-4 0  9990
2 48145  53.0520 288.3419 0001574  81.6125 278.5042 15.06400668134758
STARLINK-2489           
1 48146U 21027BG  23251.97746442 -.00009045  00000+0 -58930-3 0  9998
2 48146  53.0542 308.9487 0001381  87.9874 272.1273 15.06388293134455
STARLINK-2490           
1 48147U 21027BH  23251.90880612 -.00003141  00000+0 -19207-3 0  9995
2 48147  53.0538 314.2540 0000915  88.7090 271.4004 15.06403223134378
STARLINK-2491           
1 48148U 21027BJ  23252.40871628  .00004646  00000+0  33055-3 0  9995
2 48148  53.0544 307.0012 0002229 139.5772 220.5383 15.06404038134518
STARLINK-2492           
1 48149U 21027BK  23252.42162168  .00006074  00000+0  42630-3 0  9996
2 48149  53.0536 286.9475 0001464  88.5734 271.5422 15.06400035134792
STARLINK-2493           
1 48150U 21027BL  23252.09357524  .00000886  00000+0  78343-4 0  9999
2 48150  53.0533 288.4217 0001451  92.0188 268.0967 15.06397721134759
STARLINK-2503           
1 48151U 21027BM  23252.09726007  .00001580  00000+0  12495-3 0  9993
2 48151  53.0525 288.4072 0001606  88.2357 271.8815 15.06398536134756
STARLINK-2567           
1 48276U 21036A   23252.07192268  .00009733  00000+0  67136-3 0  9995
2 48276  53.0544 183.5181 0001450 108.0077 252.1070 15.06403328131835
STARLINK-2569           
1 48277U 21036B   23252.00695293  .00022672  00000+0  15368-2 0  9991
2 48277  53.0544 148.8115 0001434  84.0250 276.0903 15.06382756132310
STARLINK-2543           
1 48278U 21036C   23252.04428828  .00023985  00000+0  16248-2 0  9990
2 48278  53.0534 163.7243 0001407  84.4738 275.6412 15.06373148132105
STARLINK-2580           
1 48279U 21036D   23252.03690030  .00000857  00000+0  76433-4 0  9993
2 48279  53.0530 163.6749 0001512  85.8731 274.2431 15.06391701132108
STARLINK-2565           
1 48280U 21036E   23251.69872928  .00008973  00000+0  62042-3 0  9991
2 48280  53.0528 235.1937 0001454  85.3785 274.7369 15.06406512130492
STARLINK-2520           
1 48281U 21036F   23252.30874197  .00001512  00000+0  12041-3 0  9997
2 48281  53.0542 212.4524 0001311  84.3963 275.7176 15.06398239131447
STARLINK-2558           
1 48282U 21036G   23252.06685271 -.00001353  00000+0 -72005-4 0  9996
2 48282  53.0530 218.5419 0001460 107.7654 252.3494 15.06386346131346
STARLINK-2516           
1 48283U 21036H   23252.06316841  .00000755  00000+0  69538-4 0  9991
2 48283  53.0534 218.5591 0001565  92.7009 267.4159 15.06405077131343
STARLINK-2564           
1 48284U 21036J   23252.05947871  .00000531  00000+0  54559-4 0  9993
2 48284  53.0549 218.5736 0001219  98.3982 261.7146 15.06395832131338
STARLINK-2548           
1 48285U 21036K   23252.12119563  .00004526  00000+0  32265-3 0  9998
2 48285  53.0540 218.2833 0001261  97.6855 262.4277 15.06390480131341
STARLINK-2547           
1 48286U 21036L   23252.44990499  .00231397  00000+0  14795-1 0  9993
2 48286  53.0527 216.8209 0000837 100.4797 259.6287 15.07035855131391
STARLINK-2566           
1 48287U 21036M   23252.11477057  .00001357  00000+0  11001-3 0  9998
2 48287  53.0529 218.3213 0001701 109.7429 250.3744 15.06394847131340
STARLINK-2562           
1 48288U 21036N   23252.31724972  .00101001  00000+0  69075-2 0  9992
2 48288  53.0538 217.4892 0001306  97.9519 262.1618 15.05282821131374
STARLINK-2545           
1 48289U 21036P   23252.10740577  .00000077  00000+0  24067-4 0  9994
2 48289  53.0531 218.3619 0001495  78.4214 281.6943 15.06389512131340
STARLINK-2540           
1 48290U 21036Q   23252.30275759  .00009335  00000+0  64472-3 0  9992
2 48290  53.0526 217.4835 0001411  94.8304 265.2846 15.06401471131378
STARLINK-2555           
1 48291U 21036R   23252.29907515  .00012762  00000+0  87396-3 0  9991
2 48291  53.0524 217.5004 0001362  94.0869 266.0276 15.06406284131372
STARLINK-2542           
1 48292U 21036S   23252.31015667 -.00000060  00000+0  14836-4 0  9992
2 48292  53.0533 217.6126 0000982 101.7512 258.3587 15.06384660131379
STARLINK-2550           
1 48293U 21036T   23252.09265423  .00005074  00000+0  35928-3 0  9998
2 48293  53.0525 218.4276 0001551 100.4787 259.6376 15.06398809131346
STARLINK-2533           
1 48294U 21036U   23252.08896008 -.00001921  00000+0 -11009-3 0  9990
2 48294  53.0532 218.4419 0001634 107.1202 252.9966 15.06395103131347
STARLINK-2535           
1 48295U 21036V   23251.62085876  .00003625  00000+0  26216-3 0  9990
2 48295  53.0544 220.5433 0001878  83.9140 276.2063 15.06398840130698
STARLINK-2546           
1 48296U 21036W   23252.28063547  .00000934  00000+0  81623-4 0  9999
2 48296  53.0537 217.5835 0001329  91.4370 268.6771 15.06396566131373
STARLINK-2544           
1 48297U 21036X   23251.61348338 -.00005639  00000+0 -35985-3 0  9998
2 48297  53.0534 220.5765 0002231  88.2658 271.8586 15.06405240130697
STARLINK-2559           
1 48298U 21036Y   23251.60979381 -.00004786  00000+0 -30265-3 0  9994
2 48298  53.0533 220.5925 0002125  83.5847 276.5384 15.06395436130698
STARLINK-2557           
1 48299U 21036Z   23252.07054119  .00006103  00000+0  42825-3 0  9998
2 48299  53.0531 218.5236 0001378  96.9922 263.1223 15.06402514131343
STARLINK-2538           
1 48300U 21036AA  23252.32763577  .00003580  00000+0  25910-3 0  9996
2 48300  53.0527 227.3695 0001414  89.4652 270.6499 15.06397836131243
STARLINK-2537           
1 48301U 21036AB  23251.92586304  .00003962  00000+0  28483-3 0  9995
2 48301  53.0546 229.1798 0001241  63.6647 296.4469 15.06389303131170
STARLINK-2556           
1 48302U 21036AC  23252.12122130  .00004961  00000+0  35172-3 0  9995
2 48302  53.0527 228.2981 0001399  91.8532 268.2617 15.06400535131201
STARLINK-2530           
1 48303U 21036AD  23252.11659359  .00001500  00000+0  11964-3 0  9992
2 48303  53.0546 228.3088 0001508  88.0449 272.0713 15.06387574131217
STARLINK-2524           
1 48304U 21036AE  23251.64942327  .00001677  00000+0  13147-3 0  9990
2 48304  53.0544 230.4161 0001668  86.7427 273.3753 15.06388151130556
STARLINK-2519           
1 48305U 21036AF  23252.30825594  .00002177  00000+0  16503-3 0  9996
2 48305  53.0528 227.4497 0001357  92.8377 267.2768 15.06397134131240
STARLINK-2523           
1 48306U 21036AG  23252.30551734 -.00000431  00000+0 -10060-4 0  9995
2 48306  53.0546 227.4703 0001398 101.7774 258.3371 15.06395072131247
STARLINK-2528           
1 48307U 21036AH  23252.30184075  .00003831  00000+0  27592-3 0  9998
2 48307  53.0534 227.4873 0001446  88.2198 271.8957 15.06398798131244
STARLINK-2532           
1 48308U 21036AJ  23251.63466994  .00000705  00000+0  66215-4 0  9990
2 48308  53.0537 230.4818 0001802  82.5483 277.5711 15.06399533130553
STARLINK-2517           
1 48309U 21036AK  23252.09542447  .00003622  00000+0  26192-3 0  9990
2 48309  53.0529 228.4141 0001403  98.1014 262.0134 15.06399118131212
STARLINK-2536           
1 48310U 21036AL  23252.09173737  .00003754  00000+0  27076-3 0  9992
2 48310  53.0529 228.4303 0001408 102.8779 257.2368 15.06398746131211
STARLINK-2534           
1 48311U 21036AM  23252.08803275 -.00001870  00000+0 -10668-3 0  9997
2 48311  53.0537 228.4459 0001435  92.6113 267.5040 15.06393057131267
STARLINK-2061           
1 48312U 21036AN  23252.34974041  .00004282  00000+0  30617-3 0  9991
2 48312  53.0531 227.2739 0001263  95.0310 265.0823 15.06404611131301
STARLINK-2541           
1 48313U 21036AP  23252.08067235  .00000944  00000+0  82271-4 0  9996
2 48313  53.0538 228.4803 0001363  92.1223 267.9922 15.06394150131268
STARLINK-2549           
1 48314U 21036AQ  23252.34237659 -.00001378  00000+0 -73679-4 0  9991
2 48314  53.0537 227.3033 0001518  94.0645 266.0518 15.06390168131303
STARLINK-2506           
1 48315U 21036AR  23251.67427309  .00003733  00000+0  26940-3 0  9993
2 48315  53.0548 230.2925 0001685  91.1022 269.0160 15.06394850130555
STARLINK-2507           
1 48316U 21036AS  23252.20232314  .00004269  00000+0  30536-3 0  9995
2 48316  53.0529 227.9337 0001469  97.1253 262.9903 15.06391442131289
STARLINK-2513           
1 48317U 21036AT  23252.19863079  .00002981  00000+0  21896-3 0  9990
2 48317  53.0530 227.9496 0001481  94.3771 265.7387 15.06394184131289
STARLINK-2509           
1 48318U 21036AU  23252.12399054  .00005460  00000+0  38510-3 0  9997
2 48318  53.0534 238.2849 0001510  90.7658 269.3504 15.06402692131126
STARLINK-2512           
1 48319U 21036AV  23252.11934846  .00001287  00000+0  10525-3 0  9990
2 48319  53.0532 238.2969 0001284 102.4646 257.6487 15.06399510131128
STARLINK-2029           
1 48320U 21036AW  23252.11661564  .00001972  00000+0  15128-3 0  9991
2 48320  53.0544 238.3115 0001940 124.7376 235.3796 15.06396988131125
STARLINK-2457           
1 48321U 21036AX  23252.11292823  .00000189  00000+0  31585-4 0  9995
2 48321  53.0552 238.3375 0001415  80.5182 279.5967 15.06394693131079
STARLINK-2477           
1 48322U 21036AY  23252.10924107  .00000683  00000+0  64771-4 0  9994
2 48322  53.0551 238.3501 0001441  99.7001 260.4150 15.06397949131071
